id,latitude,longitude,addresses,qv_list,svg_x_whole,svg_y_whole,svg_x_njesia,svg_y_njesia,in_njesia,njesia_name
1,41.349075556228485,19.744852484429643,Qendër Shëndetsore Yrshek,"1543/00, 1543/01",0.138153,0.190269,-0.001868,0.024160,false,
2,41.31712098674056,19.788979160315268,"Shkolla ""Karl Gega""","1856/00, 1856/01",0.171295,0.222223,0.031266,0.056115,true,Njësia 6
3,41.35017241324126,19.86288566818832,"Qesarake, Shkolla","1529/03, 1615/00, 1615/01, 1615/02, 1615/03, 1615/04, 1615/05, 1615/06, 1615/07, 1615/08, 1615/09, 1615/10, 1615/11, 1615/12, 1615/13, 1615/14, 1615/15, 1686/00, 1722/00, 1729/00, 1767/01, 1928/01, 1967/00",0.226805,0.189172,0.086762,0.023063,false,
4,41.33217435197746,19.817187783531875,"Lokal privat, Trifon Pergjegaj; Ndërtesë private, lokal Erdit Ponari","1959/02, 1959/03, 1967/01",0.192482,0.207170,0.052448,0.041061,true,Njësia 9
5,41.32651076668575,19.81167074305652,"SH ""K PEZES""","1818/01, 1986/00, 1986/01, 1987/00, 1987/01, 1987/02, 1987/03, 1989/00, 1989/01",0.188339,0.212834,0.048305,0.046725,true,Njësia 10
6,41.338106425573905,19.79829868538484,"Çerdhja Nr.30.Kati 2, Rr.""Pandi Dardha""","2000/00, 2000/01",0.178295,0.201238,0.038264,0.035129,true,Njësia 11
7,41.34132480887542,20.070668930347278,"Burimas, Shkolla  9-vjeçare""Vesel Tila"" Rruga Gaçi Nr 2",1659/00,0.382865,0.198019,0.242785,0.031911,false,
8,41.32884918719742,19.82849422400696,"Shkolla e Mesme ""Ismail Qemali"",Rr.''Johan Fon Han''","1742/00, 1742/01, 1745/00, 1746/00, 1746/01, 1747/01",0.200974,0.210495,0.060938,0.044386,true,Njësia 2
9,41.35390260467086,19.851023297885952,"Rr Rr.""Myslim Keta"" SHKOLLA  ""Pal Engjelli""",1794/00,0.217895,0.185442,0.077855,0.019333,true,Njësia 4
10,41.31301176033844,19.765597883531026,Shkolla ''Musine Kokalari'',"1865/01, 1867/00",0.153734,0.226333,0.013709,0.060224,true,Njësia 6
11,41.334263354754654,19.85974345469594,"Shkolla 9-vjeçare ""Androkli Kostallari"" Shkozë",1705/00,0.224445,0.205081,0.084403,0.038972,true,Njësia 1
12,41.21775548997649,19.969805138534674,"Krrabë, Kopshti i fëmijëve Grupi 2",1631/00,0.307109,0.321589,0.167047,0.155480,false,
13,41.326608207977685,19.797783397023345,"Shkolla ""Gustav Mayer""","1885/00, 1885/01, 1889/00, 1889/01, 1894/00, 1894/01, 1895/00, 1895/01",0.177908,0.212736,0.037877,0.046627,true,Njësia 7
14,41.35033334285198,19.826784514221533,"Shkolla ""Ardian Klosi"" në Rr. Selaudin Bekteshi","1803/00, 1803/01, 1803/02, 1803/03",0.199690,0.189011,0.059654,0.022902,true,Njësia 4
15,41.31950066929056,19.832505868186924,"Godina ''Liria''-Universiteti i Tiranës,Rr.''Arben Broci''","1723/00, 1723/01, 1723/02, 1723/03, 1723/04, 1727/00, 1727/01",0.203987,0.219844,0.063950,0.053735,true,Njësia 2
16,41.34090208811277,19.786910400729276,"Shkolla 9-vjeçare ""Andrea Stefani"", Rr. ""Gj. Legisi""","2016/00, 2016/01, 2016/02",0.169742,0.198442,0.029713,0.032333,true,Njësia 11
17,41.33128204632195,19.831134479236173,"Shkolla 9 Vjeçare ""Hasan Tasim"" Rr.""Deko Rusi""","1740/00, 1740/01, 1741/00, 1741/01, 1741/02, 1748/00, 1766/01",0.202957,0.208062,0.062920,0.041954,true,Njësia 2
18,41.32187057621054,19.825309300728446,"Liceu Artistik ''Jordan Misja'', Rr.""Elbasanit""",1730/01,0.198582,0.217474,0.058546,0.051365,true,Njësia 2
19,41.33120488716527,19.83938366210645,"Shkolla ""Kushtrimi i Lirise""  Rr.Ali Demi",1700/00,0.209153,0.208139,0.069115,0.042031,true,Njësia 1
20,41.338551926729686,19.80597513564625,Shkolla '' Qazim Turdiu '',"1963/00, 1963/01, 1963/02, 1963/03, 1963/04, 1963/05",0.184061,0.200792,0.044028,0.034684,true,Njësia 9
21,41.34117166960108,19.79432177004055,"Rep. ''Inspektim-Shpëtim Minierat'', Rr. ''S.Bruzi''","2015/00, 2015/01, 2018/00, 2018/01",0.175308,0.198173,0.035278,0.032064,true,Njësia 11
22,41.33116460549364,19.839330017925963,"Shkolla ""Kushtrimi Lirise"" Rr. ""Ali Demi""","1683/01, 1684/00, 1684/01, 1685/00, 1686/01, 1687/00, 1688/00, 1688/01, 1689/00, 1689/01, 1689/02, 1690/00",0.209113,0.208180,0.069074,0.042071,true,Njësia 1
23,41.34895838672484,19.84059473262672,"Rruga ""H.Bega"", Stacioni i Pyjeve","1791/00, 1791/01, 1791/02",0.210063,0.190386,0.070024,0.024277,true,Njësia 4
24,41.3374230386394,19.832760639351672,"Shkolla ""Çajupi"" Rruga ""Kongresi I Manastirit""","1764/00, 1765/01",0.204179,0.201921,0.064141,0.035813,true,Njësia 3
25,41.323770700582074,19.809674043543293,"Kopshti Nr.17 Rr.""Vangjush Furxhi""; Kopshti Nr.17 (me kontenier ) Rr.""Vangjush Furxhi""","1902/00, 1902/01, 1902/02, 1904/00",0.186839,0.215574,0.046806,0.049465,true,Njësia 7
26,41.331108211111506,19.83929783141767,"Shkolla ""Kushtrimi i Lirise"" Rr.Ali Demi","1701/00, 1701/01, 1701/02, 1702/00, 1702/01",0.209088,0.208236,0.069050,0.042127,true,Njësia 1
27,41.33830086106026,19.80199644440151,"Qëndra''Don Bosko'',Tiranë, Rr.''Don Bosko''","2004/03, 2005/01",0.181072,0.201043,0.041041,0.034935,true,Njësia 11
28,41.322755648811345,19.80028634543204,"Shkolla ""Drita Pelinku""","1849/02, 1883/00, 1900/00, 1900/01, 1900/02, 1900/03, 1900/04, 2084/03",0.179788,0.216589,0.039757,0.050480,true,Njësia 7
29,41.319423847595694,19.79690693194013,"Çerdhja Nr.57,Rr.""Irfan Tomini""","1847/00, 1847/01, 1847/02",0.177250,0.219920,0.037219,0.053812,true,Njësia 5
30,41.35979637310057,19.77795258215786,"Shkolla ''Isa Boletini'', Rr.""Hasan Vathi"" K.Kamëz","2032/00, 2032/01",0.163014,0.179548,0.022986,0.013439,true,Njësia 11
31,41.3456666623681,19.835946368188115,"Shkolla ""Ramazan Jarani""","1802/00, 1802/01, 1802/02",0.206571,0.193678,0.066534,0.027569,true,Njësia 4
32,41.3448777563064,19.83710701236862,"Rruga e "" Dibres "" Kopshti Nr 39","1809/00, 1809/01",0.207443,0.194467,0.067405,0.028358,true,Njësia 4
33,41.317333597947886,19.815618277792545,"Shkolla ""P.N. Luarasi"",Rr ""Sami Frasheri""","1730/02, 1827/00, 1827/01, 1827/02, 1827/03",0.191303,0.222011,0.051269,0.055902,true,Njësia 5
34,41.324011344907525,19.83139381236762,"Shkolla 9 Vjeçare ''Mihal Grameno"",Rr. ''Mihal Grameno""","1709/01, 1709/02, 1713/00, 1713/01, 1714/00, 1714/01, 1714/02, 1714/03, 1716/00",0.203152,0.215333,0.063115,0.049224,true,Njësia 2
35,41.335042093872964,19.819909853731474,"Shkolla ""Lidhja e Prizrenit""","1964/00, 1964/01, 1971/00, 1971/01",0.194527,0.204302,0.054492,0.038193,true,Njësia 9
36,41.31955620929523,19.85711291813247,"Kontenier.Rr ""Maliq Çollaku""","1725/01, 2080/02",0.222469,0.219788,0.082427,0.053679,false,
37,41.321926978588486,19.825159097023086,"Liceu Artistik  ''Jordan Misja'', Rr. ""Elbasanit""","1728/00, 1730/00",0.198469,0.217417,0.058433,0.051309,true,Njësia 2
38,41.32207807819627,19.829843197023063,"Shkolla 9 Vjeçare ""Osman Myderizi"", Rr. ""Drago Siliqi""","1720/00, 1720/01, 1720/02, 1725/00, 1725/02",0.201987,0.217266,0.061951,0.051157,true,Njësia 2
39,41.32494774224665,19.83098272771209,"Çerdhja Nr.54,Rr. ""Dalip Zavalani""","1708/00, 1708/01",0.202843,0.214397,0.062806,0.048288,true,Njësia 2
40,41.33921613467219,19.781812259635448,"Rr. ""Berit Beker"" amb sherbimi Medi Cara",1882/02,0.165913,0.200128,0.025885,0.034019,true,Njësia 7
41,41.32468518574623,19.815966656548134,"Sh ""D Distria""","1979/00, 1980/00, 1980/01, 1981/00, 1981/01, 1985/00",0.191565,0.214659,0.051531,0.048550,true,Njësia 10
42,41.346154270169016,19.83814584305742,"Rruga ""Niko Avrami "" Shkolla "" Bajram Curri""","1804/01, 1805/00",0.208223,0.193190,0.068185,0.027081,true,Njësia 4
43,41.316906449745346,19.802416583531173,"Shkolla ""At Zef Pllumi"",Rr.""Robert Shvarc""","1537/12, 1538/02, 1833/00, 1845/00, 1845/01, 1845/02, 1845/03, 1845/04, 1845/05, 1845/06, 1845/08, 1845/09, 1845/10, 1845/11",0.181388,0.222438,0.041356,0.056329,true,Njësia 5
44,41.34611076126924,19.783146870040845,"Shkolla 9-vjeçare ""Skënder Luarasi"" Rr. ""V. Noti""","2012/00, 2012/01",0.166915,0.193234,0.026887,0.027125,true,Njësia 11
45,41.32862571786568,19.802051070040104,"""Fakulteti i Inxhinierisë së Ndërtimit""","1910/00, 1910/01, 1911/00, 1911/01",0.181113,0.210719,0.041082,0.044610,true,Njësia 7
46,41.33309480066657,19.81890499702362,"Shkolla "" Sami Frashëri ""","1966/00, 1966/01, 1966/02, 1969/00",0.193772,0.206249,0.053737,0.040141,true,Njësia 9
47,41.34816463085902,19.836698717210528,"Rruga "" Niko Avrami "" Kopshti Nr 25","1801/00, 1801/01",0.207136,0.191180,0.067098,0.025071,true,Njësia 4
48,41.30090693267829,19.86492381236657,"Shkolla 9 vjeçare,Farkë e Vogël","2079/00, 2079/01",0.228335,0.238437,0.088293,0.072329,false,
49,41.319831999548335,19.8163724835313,"Çerdhja nr 16,Rr.""Nikolla Tupe""","1816/00, 1816/01",0.191870,0.219512,0.051836,0.053404,true,Njësia 5
50,41.324772156906214,19.803370156548183,"Shkolla 9 vjeçare ""Sabaudin Gabrani"", Rr. ""Muhamet Gjollesha""","1906/00, 1906/01",0.182104,0.214572,0.042072,0.048463,true,Njësia 7
51,41.1807142182885,19.838200760246945,Shkolla 9-Vjeçare Koçaj,2076/00,0.208264,0.358630,0.068226,0.192521,false,
52,41.322441619816274,19.825045714220217,"Shkolla 9 Vjeçare ""Kosova"", Rr. ''Ismail Qemali''","1728/01, 1731/01",0.198384,0.216903,0.058348,0.050794,true,Njësia 2
53,41.32697933797586,19.77118629702335,Yzberisht Shkolla e bashkuar ''Myslym Shima'',"1529/00, 1529/01, 1529/02",0.157932,0.212365,0.017906,0.046256,false,
54,41.339565888098704,19.844689744909804,"Shkolla 9-vjeçare ""Hasan Prishtina"" Rruga ""Qemal Stafa""(Varri I Bamit)","1762/00, 1762/01, 1762/02, 1774/00, 1776/00, 1776/01",0.213138,0.199778,0.073099,0.033670,true,Njësia 3
55,41.33437493913056,19.822003340681217,Çerdhja  Nr 23,"1970/00, 1970/01",0.196099,0.204969,0.056064,0.038861,true,Njësia 9
56,41.312040623750136,19.76938885767417,"Shkollla Lasgush Poradeci""",1865/00,0.156582,0.227304,0.016556,0.061195,true,Njësia 6
57,41.34959089879318,19.844615327742112,"Rruga:""H.Bega"", Stacioni i Pyjeve",1792/00,0.213082,0.189753,0.073043,0.023645,true,Njësia 4
58,41.316825133705066,19.813177660253146,"Shkolla ""Deshmoret e Lirise"",Rr""Zef Jubani""","1828/00, 1828/01, 1828/02, 1829/00, 1829/01, 1829/02, 1830/00, 1830/01",0.189470,0.222519,0.049437,0.056410,true,Njësia 5
59,41.33358677255007,19.865740170040258,"Shkolla e mesme ""Abdulla Keta"" Shkoze","1699/00, 1699/01, 1699/02, 1699/03, 1703/00, 1703/01, 1703/02",0.228949,0.205757,0.088906,0.039649,true,Njësia 1
60,41.223677141057394,19.83603570198673,Shkolla Fillore Rrovë,2073/00,0.206638,0.315667,0.066601,0.149558,false,
61,41.32101853529158,19.804774900990008,"Shkolla ""Vasil Shanto"", Bulevardi ""Bajram Curri""","1839/00, 1840/00, 1840/01, 1841/00, 1841/01, 1842/00, 1842/01",0.183159,0.218326,0.043127,0.052217,true,Njësia 5
62,41.32747134279008,19.802770614763094,"Shkolla ""Naim Frashëri""","1709/00, 1886/00, 1890/00, 1890/01, 1890/02, 1890/03, 1891/00, 1891/01, 1892/00, 1918/00, 1918/01, 1918/02, 1918/03, 1918/04",0.181654,0.211873,0.041622,0.045764,true,Njësia 7
63,41.32818901059106,19.825107373888127,"Shkolla e ''Mesme Ekonomike"" Rr.""Myrtezim Këlliçi""","1733/00, 1734/00, 1734/01, 1747/00",0.198430,0.211155,0.058395,0.045047,true,Njësia 2
64,41.34236009112237,19.832905358663115,"Rruga e "" Dibres"" Fakulteti i Mjekesise","1812/00, 1812/01",0.204287,0.196984,0.064250,0.030875,true,Njësia 4
65,41.33591727689404,19.78837149887641,"Shkolla ""Dhora Leka""","1886/01, 1886/02, 1919/00, 1919/01, 1919/02, 1920/00, 1920/01, 1920/02",0.170839,0.203427,0.030810,0.037318,true,Njësia 7
66,41.334263354754654,19.860344269517373,"Shkolla 9-Vjeçare  ""Androkli Kostallari"" Shkozë","1704/00, 1704/01, 1704/02, 1704/03",0.224896,0.205081,0.084854,0.038972,true,Njësia 1
67,41.32183114879802,19.739184265811357,"Prush, Shkolla 9-vjeçare""Ibrahim Hima""",2116/00,0.133896,0.217513,-0.006125,0.051404,false,
68,41.32097323537548,19.812088582485494,"Shkolla ""Emin Duraku"",Rr ""Gjin Bue Shpata""","1819/00, 1819/01, 1820/00, 1833/01, 1834/00, 1834/01, 1834/02, 1835/00, 1835/01",0.188652,0.218371,0.048619,0.052262,true,Njësia 5
69,41.328532121354826,19.83242639279516,"Shkolla 9-vjeçare  ""Ali Demi""",1691/00,0.203928,0.210812,0.063890,0.044703,true,Njësia 1
70,41.32507285598724,19.808648412367674,"Shkolla e Mesme ""Arben Broci""; Shkolla e Mesme ""Arben Broci"" Rr.""Besim Imami""","1903/00, 1905/00, 1905/01, 1907/00, 1907/01",0.186069,0.214271,0.046036,0.048163,true,Njësia 7
71,41.39721878280215,19.776331354902506,"Shkolla 9-Vjeçare ''Haxhi Korra''Çerkezë ,sipas vendimit nr.01,Datë,09.01.2019,të Administratorit të Njesise Administrative Zall-Herr","2056/00, 2056/01, 2056/02",0.161796,0.142125,0.021769,-0.023983,false,
72,41.30285995972829,19.843815966844556,"Shkolla 9 Vjeçare ""Qemal Ataturku"",Rr.''Muhamed Çani''","1726/00, 1737/00, 1737/01, 1738/00, 1738/01, 1739/00, 1739/01",0.212482,0.236484,0.072443,0.070376,true,Njësia 2
73,41.32011629534405,19.79358740763239,"Kopshti 45,Rr.""Irfan Tomini""","1850/00, 1850/01, 1850/02",0.174757,0.219228,0.034726,0.053119,true,Njësia 5
74,41.34834220647953,19.746991270294053,Shkolla 9-vjeçare Yrshek,"1542/00, 1542/01",0.139759,0.191002,-0.000262,0.024893,false,
75,41.27770038213241,19.717422068301534,"Pezë Helmës, Shkolla ""Myrvete Peza""; Peze Helmes, Shkolla","2102/00, 2102/01, 2102/02",0.117551,0.261644,-0.022466,0.095535,false,
76,41.34636796063283,19.823399967665246,"Shkolla ""Sevasti Qiriazi"",Objekt Publik","1944/00, 1944/01, 1944/02, 1944/03, 1945/00, 1945/01",0.197148,0.192976,0.057113,0.026868,true,Njësia 8
77,41.31305069463401,19.766161365811012,"Shkolla 9-vjeçare ""Musine Kokalari""","1868/00, 1868/01, 1869/00, 1869/01",0.154158,0.226294,0.014132,0.060185,true,Njësia 6
78,41.32033985969746,19.783092929564553,"Shkolla ""Kongresi Manastirit""","1876/01, 1876/02, 1879/00, 1879/01, 1879/02, 1879/03",0.166874,0.219004,0.026846,0.052896,true,Njësia 6
79,41.312795796136044,19.808949346890262,"Parku Olimpik,Zyrat e Agjensisë Parqeve dhe Rekreacionit,Rr.Liman Kaba.","2084/00, 2084/01, 2084/02, 2084/04, 2084/05, 2084/06, 2084/07, 2084/08",0.186295,0.226548,0.046262,0.060440,true,Njësia 5
80,41.23567798460245,19.928179092446694,"Ibe Poshte , Shkolla e mesme",1607/00,0.275845,0.303666,0.135791,0.137558,false,
81,41.33959005398761,19.84483994861516,"Shkolla 9-vjeçare ""Hasan Prishtina""        Rruga ""Qemal Stafa""(Varri I Bamit)","1757/00, 1757/01",0.213251,0.199754,0.073212,0.033646,true,Njësia 3
82,41.31724898421072,19.81635796025321,"Fakulteti Drejtesise,Rr ""Milto Tutulani""","1822/00, 1822/01, 1823/00",0.191859,0.222095,0.051825,0.055987,true,Njësia 5
83,41.32987727960411,19.81103919462909,"Sh ""A.Rustemi""","1991/00, 1992/00, 1992/01, 1993/00, 1994/00, 1994/01",0.187864,0.209467,0.047831,0.043358,true,Njësia 10
84,41.33258013519522,19.806406975278836,"Shkolla ""Q Stafa""","1995/00, 1998/00, 1999/00, 1999/01",0.184385,0.206764,0.044353,0.040655,true,Njësia 10
85,41.26679219297633,19.793910648825666,"Arbane, Shkolla",2121/00,0.174999,0.272552,0.034969,0.106443,false,
86,41.313191935595576,19.771594598875453,Kopshti Nr.27,"1862/00, 1862/01",0.158238,0.226152,0.018212,0.060044,true,Njësia 6
87,41.331180718165285,19.839362204434256,"Shkolla 9-vjecare ""Kushtrimi i Lirisë"" Ali Demi","1695/00, 1695/01",0.209137,0.208164,0.069098,0.042055,true,Njësia 1
88,41.32413647644151,19.797176620676442,"Ish parku, ndërtesë private Shpresa Steaj","1959/00, 1959/01",0.177452,0.215208,0.037422,0.049099,true,Njësia 7
89,41.336440140898205,19.830599627712594,"Shkolla ""4 Dëshmorët""","1930/00, 1930/01",0.202555,0.202904,0.062519,0.036795,true,Njësia 8
90,41.32350820125961,19.81002889300483,"Çerdhja nr.47 Rr. ""Nikolla Jorga""","1901/00, 1901/01",0.187105,0.215836,0.047072,0.049727,true,Njësia 7
91,41.314893763379494,19.770751181678435,"Shkolla ""Myslym Keta""","1541/01, 1857/00, 1857/01, 1857/02, 1858/00, 1858/01",0.157605,0.224451,0.017579,0.058342,true,Njësia 6
92,41.312955350245154,19.765544239350543,"Shkolla ""Musine Kokalari""","1867/01, 1870/00, 1870/01, 1870/02",0.153694,0.226389,0.013669,0.060280,true,Njësia 6
93,41.357977544074046,19.762228012369164,"Shkolla 9-vjeçare ""Kolë Jakova"", Rr. ""Princ Vidi"" B.Lumi","2025/00, 2025/01, 2026/00, 2026/01, 2027/01",0.151203,0.181367,0.011179,0.015258,true,Njësia 11
94,41.318833839343235,19.796730709991778,"Shkolla""26 Nentori"",Rr.""Nuçi Naçi""","1848/00, 1848/01, 1851/00, 1851/01",0.177117,0.220510,0.037087,0.054402,true,Njësia 5
95,41.36327671792997,19.7886488502026,"Shkolla 9-vjeçare, ""Isa Boletini"", Rr.""Gramozi"" K.Kamëz","2019/00, 2019/01",0.171047,0.176068,0.031018,0.009959,false,
96,41.36172053620369,19.770611143741124,"Shkolla ''Nënë Tereza'', Rruga ''Paisi Vodica''.","2030/00, 2030/01, 2031/00",0.157500,0.177624,0.017474,0.011515,true,Njësia 11
97,41.338305048999665,19.802039633263778,"Qëndra''Don Bosko'', Rr.''Don Bosko''","2004/00, 2004/01, 2004/02, 2014/00, 2014/01, 2014/02",0.181105,0.201039,0.041073,0.034931,true,Njësia 11
98,41.340488519975494,19.834999750467873,"Shkolla ""Skënder Çaçi"",Objekt Publik","1931/00, 1936/00, 1936/01, 1940/00, 1940/01",0.205860,0.198856,0.065823,0.032747,true,Njësia 3
99,41.33903975444982,19.89435202028567,"Lanabregas,'Ambulanca e fshatit'","1627/00, 1627/02",0.250438,0.200305,0.110390,0.034196,false,
100,41.33948533507095,19.84462537189322,"Shkolla 9 vjeçare ""Hasan Prishtina"" Rruga ""Qemal Stafa""(Varri I Bamit)","1760/00, 1760/01, 1760/02",0.213090,0.199859,0.073051,0.033750,true,Njësia 3
101,41.32755995035617,19.829657108139482,"Shkolla 9-vjecare ""1 Maji""","1693/00, 1693/01",0.201848,0.211784,0.061811,0.045676,true,Njësia 1
102,41.31931251667821,19.790898121630864,"Shkolla ""1 Qershori""","1878/00, 1878/01, 1880/00, 1880/01",0.172737,0.220032,0.032707,0.053923,true,Njësia 6
103,41.33073515980906,19.82496349071045,"Shkolla 9 Vjeçare ""Fan Noli"" Rr.""Qemal Stafa""","1732/00, 1732/01, 1743/00, 1743/01, 1744/00, 1922/00",0.198322,0.208609,0.058287,0.042500,true,Njësia 2
104,41.337977918824734,19.798305825764512,"Çerdhja nr. 30,Kati 1, Rruga ""Pandi Dardha""","2003/00, 2003/01, 2003/02",0.178300,0.201366,0.038269,0.035258,true,Njësia 11
105,41.3484865866919,19.83397017856977,"Rruga ""Njazi Meka"" ,Kopeshti Nr 27","1798/00, 1798/01",0.205087,0.190858,0.065050,0.024749,true,Njësia 4
106,41.32191086362835,19.825384402581125,"Liceu Artistik ''Jordan Misja'', Rr. ""Elbasanit""","1729/01, 1729/02",0.198638,0.217433,0.058603,0.051325,true,Njësia 2
107,41.333575536221126,19.80178993141777,"Pallati i Sportit ""Asllan Rusi""","1887/00, 1887/01, 1887/02, 1888/01, 1888/02, 1888/03",0.180917,0.205769,0.040886,0.039660,true,Njësia 7
108,41.34512136284131,19.844740765812503,"Shkolla ""Gjon Buzuku""","1788/00, 1788/01, 1790/00, 1790/01",0.213177,0.194223,0.073137,0.028114,true,Njësia 4
109,41.34617037913275,19.83811365654913,"Rruga  ""Niko  Avrami "" Shkolla "" Bajram Curri ""","1804/00, 1806/00, 1806/01, 1806/02, 1807/00, 1807/01",0.208199,0.193174,0.068161,0.027065,true,Njësia 4
110,41.32202070351083,19.837045650467076,"Shkolla 9-vjeçare Publike''Bashkim Fino'',Rruga ''Jorgjia Truja''","1609/00, 1716/01, 1716/02, 1717/00, 1717/01, 1718/00, 1718/01, 1719/00, 1721/00",0.207397,0.217324,0.067359,0.051215,true,Njësia 2
111,41.33099579130202,19.80311461977865,Universiteti i Sporteve,"1914/00, 1914/01, 1915/00, 1915/01, 1916/00, 1916/01",0.181912,0.208348,0.041880,0.042240,true,Njësia 7
112,41.33825540331634,19.763678873222858,"''Shkolla 9-vjeçare Kasem Shima'',Mëzez Kodër.","1539/00, 1539/01, 1539/02, 1539/03",0.152293,0.201089,0.012268,0.034980,false,
113,41.32813475217495,19.805767700275844,Kopshti Nr.2,"1912/00, 1912/01, 1912/02",0.183905,0.211210,0.043873,0.045101,true,Njësia 7
114,41.33743109420173,19.833597488567243,"Shkolla ""Çajupi"" Rruga""Kongresi I Manastirit""","1766/00, 1766/02",0.204807,0.201913,0.064770,0.035804,true,Njësia 3
115,41.32757032329639,19.817819621092394,"SH ""K KRISTOFORIDHI""","1982/00, 1982/01, 1983/00, 1984/00",0.192957,0.211774,0.052922,0.045665,true,Njësia 10
116,41.334090379858594,19.775563412066457,"Kashar  Qender ,Qender Shendetesore","1533/00, 1533/01",0.161219,0.205254,0.021192,0.039145,false,
117,41.30117875226238,19.744037929040687,"Vaqar, Shkolla e Mesme Bashkuar Bedri Llagami",2110/00,0.137541,0.238166,-0.002480,0.072057,false,
118,41.32854017801667,19.832598054172713,"Shkolla 9-vjeçare ""Ali Demi""","1691/01, 1697/01",0.204056,0.210804,0.064019,0.044695,true,Njësia 1
119,41.33763561557134,19.82640911184526,"Shkolla ""Misto Mame"",Objekt Publik","1932/00, 1932/01",0.199408,0.201709,0.059372,0.035600,true,Njësia 8
120,41.33543096870687,19.81143108125148,Qendra e Formimit Profesional,"1873/01, 1896/01, 1958/00, 1958/01, 1961/00, 1961/01, 1961/02",0.188159,0.203913,0.048125,0.037805,true,Njësia 9
121,41.27074406273193,20.025721422958295,"Kllojke, Shkolla e mesme",1612/00,0.349106,0.268600,0.209035,0.102492,false,
122,41.38484247817358,19.858335271435458,"Ferraj, Shkolla",1618/00,0.223387,0.154502,0.083345,-0.011607,false,
123,41.315051938307676,19.878739306320647,"Shkolla e mesme , Farke e Madhe","2077/00, 2077/01",0.238712,0.224292,0.098667,0.058184,false,
124,41.32577821039008,19.7992890695751,"""Çerdhja SFI""",1893/00,0.179039,0.213566,0.039008,0.047457,true,Njësia 7
125,41.34555877881297,19.858328768946574,"Shkolla 9 vjeçare ""Luigj Gurakuqi""  Rruga ""Qemal Stafa""","1761/00, 1761/01, 1761/02, 1785/00",0.223382,0.193785,0.083340,0.027677,false,
126,41.389398561803155,19.826942643582345,"Shkolla e Mesme e Bashkuar Zall-Herr.Sipas Vendimit Nr.01,datë.09.01.2019,të Administratorit Njësia Aministrative Zall-Herr","2052/00, 2052/01",0.199809,0.149946,0.059773,-0.016163,false,
127,41.324780214033034,19.803724208139386,"Shkolla ""Sabaudin Gabrani"" , Rr. ""Muhamet Gjollesha""","1899/00, 1899/01",0.182370,0.214564,0.042338,0.048455,true,Njësia 7
128,41.317145307317794,19.789384415811192,"Shkolla  ""Karl Gega""","1877/00, 1877/01, 1877/02",0.171600,0.222199,0.031570,0.056090,true,Njësia 6
129,41.313220372084636,19.883575428478892,"Ambulanca,Farke e Vogel",2079/02,0.242344,0.226124,0.102298,0.060015,false,
130,41.334670154050386,19.822632038828502,"Shkolla ""Siri Kodra"",Objekt Publik","1933/00, 1933/01, 1937/00, 1937/01",0.196571,0.204674,0.056536,0.038565,true,Njësia 8
131,41.342408420817534,19.832969731679693,"Rr "" Dibres"" Fakulteti i Mjekësisë","1813/00, 1813/01, 1813/02, 1813/03, 1813/04",0.204336,0.196936,0.064298,0.030827,true,Njësia 4
132,41.3451938542966,19.844966071370546,"Rruga ''Aleksander Moisiu'', Shkolla ""Gjon Buzuku","1785/01, 1785/02, 1786/00, 1786/01, 1787/00, 1787/01, 1797/00, 1885/02",0.213346,0.194150,0.073306,0.028042,true,Njësia 4
133,41.429339645502,19.935837289200663,Shkolla e Mesme Bahri Nela Zall-Bastar,1665/00,0.281597,0.110005,0.141541,-0.056104,false,
134,41.34591656519974,19.835725962981176,"Rruga  "" Niko Avrami ""  Kopeshti  Nr 25","1800/00, 1800/01",0.206406,0.193428,0.066368,0.027319,true,Njësia 4
135,41.3455217073308,19.836077799202858,"Rruga ""Niko Avrami "" Shkolla Ramazan Jarani","1799/00, 1799/01",0.206670,0.193823,0.066632,0.027714,true,Njësia 4
136,41.31998283721227,19.808448363958636,"Kopshti nr. 11 ,Rr ""Mustafa Qosja""","1838/00, 1838/01",0.185918,0.219361,0.045885,0.053253,true,Njësia 5
137,41.33425529880057,19.860022404434464,"Shkolla 9 Vjeçare ""Androkli Kostallari"" Shkozë","1682/00, 1682/01",0.224654,0.205089,0.084612,0.038980,true,Njësia 1
138,41.332448026478744,19.81385531977869,Kopshti Nr 36,"1765/00, 1950/00",0.189979,0.206896,0.049945,0.040788,true,Njësia 9
139,41.324961015337955,19.83551007973071,"Kopshti i fëmijëve ""Nënë Tereza"",Rr.''Besim Abdiu''","1715/00, 1715/01, 1715/02",0.206244,0.214383,0.066206,0.048275,true,Njësia 2
140,41.31708280068425,19.77071085417215,Kopshti Nr.38,"1874/00, 1874/01, 1874/02, 1874/03, 1876/00",0.157575,0.222261,0.017549,0.056153,true,Njësia 6
141,41.28752276774611,19.83940786329191,"Shkolla 9 vjeçare,Mjull-Bathore","2082/00, 2082/01",0.209171,0.251822,0.069133,0.085713,false,
142,41.309054762209165,19.810508235604605,Ambjenti publik pranë zyrave të administratës të Kopshtit Zoologjik në rrugën ''Liqeni Thatë'',"1852/01, 2083/00, 2083/01, 2083/02",0.187465,0.230290,0.047432,0.064181,false,
143,41.31333598656486,19.791945277450008,"Shkolla""Murat Toptani"" Rr. ""Vangjel Koça""",1855/00,0.173523,0.226008,0.033493,0.059900,true,Njësia 5
144,41.17336597741886,19.826910027519116,"Veski, Shkolla",2064/00,0.199784,0.365978,0.059748,0.199870,false,
145,41.23975485648147,19.80095265416863,"Fushas, Shkolla",2069/00,0.180288,0.299589,0.040257,0.133481,false,
146,41.217690504545494,19.804312057872966,"Baldushk, Shkolla e mesme",2071/00,0.182812,0.321654,0.042779,0.155545,false,
147,41.19663832175177,19.815329936113102,"Mustafakoc, Shkolla",2074/00,0.191087,0.342706,0.051053,0.176597,false,
148,41.35262532295459,19.73852936158457,''Shkolla 9-vjeçare Katundi i Ri'',"1530/00, 1530/01",0.133404,0.186719,-0.006616,0.020610,false,
149,41.35230883192286,19.720716373754243,''Shkolla 9-vjeçare Mustafa Lleshi Kashar Kodër''.,"1531/00, 1531/01",0.120025,0.187035,-0.019992,0.020927,false,
150,41.35706179012245,19.705936449945742,"''Shkolla e Mesme e Bashkuar Qemal Cena'',Kashar Qendër","1532/00, 1532/01",0.108924,0.182282,-0.031090,0.016174,false,
151,41.352783484235644,19.679843937994526,Mazrek  Shkolla fillore publike,1534/00,0.089327,0.186561,-0.050683,0.020452,false,
152,41.33692408399639,19.689508654173032,Kus  Shkolla  9-vjecare publike,1535/00,0.096586,0.202420,-0.043426,0.036311,false,
153,41.327026819268106,19.772189920994048,"Shkolla 9-vjeçare,Yzberish","1536/00, 1536/01, 1536/02, 1536/03",0.158686,0.212317,0.018659,0.046209,false,
154,41.32684492409191,19.77723238274583,"Objekt i ri për QV,Bulevardi Migjeni,Lgj.nr.14,Yzberish","1537/01, 1537/02, 1537/03, 1537/04, 1537/05, 1537/06, 1537/07, 1537/08, 1537/09, 1537/10, 1537/11, 1537/13, 1537/14, 1537/15, 1537/16, 1537/17, 1537/18, 1537/19, 1537/20, 1537/21, 1537/22",0.162473,0.212499,0.022446,0.046391,false,
155,41.328414130007346,19.770773435434446,Shkolla 9-vjeçare Yzberish,"1537/00, 1538/00, 1538/01, 1538/03, 1864/01",0.157622,0.210930,0.017596,0.044821,false,
156,41.34895630838528,19.76662028115696,Shkolla 9-vjeçare Mëzez Fushë,"1540/00, 1540/01, 1540/02, 1540/03, 1541/00, 1541/02, 1888/00",0.154502,0.190388,0.014477,0.024279,false,
157,41.3524908694751,19.73887502163233,"Shkolla e Mesme Sadik Stavileci,Katundi i Ri",1544/00,0.133664,0.186853,-0.006357,0.020745,false,
158,41.26432294284553,19.652756710077988,"Ndroq, shkolla 9-vjecare","2085/00, 2085/01, 2097/00",0.068982,0.275021,-0.071023,0.108913,false,
159,41.29001350897786,19.70695800871719,"Memik,Shkolla 9 - Vjecare",2089/00,0.109692,0.249331,-0.030323,0.083222,false,
160,41.29256513401935,19.72489187808366,Shkolla 9-vjeçare Ura e Beshirit,2090/00,0.123161,0.246779,-0.016857,0.080670,false,
161,41.26445129488617,19.65599213167072,"Ndroq, qendra shendetsore",2091/00,0.071412,0.274893,-0.068593,0.108784,false,
162,41.263989770312605,19.63797813512002,"Lagje e Re,Shkolla 9-vjeçare",2092/00,0.057883,0.275354,-0.082120,0.109246,false,
163,41.26978326062578,19.62071303963236,"Zhurje, Shkolla Fillore",2093/00,0.044915,0.269561,-0.095084,0.103452,false,
164,41.267136743117646,19.638648015497196,"Lagje e Re, Kopshti i Fëmijëve",2094/00,0.058386,0.272208,-0.081617,0.106099,false,
165,41.27964466597191,19.636366323481713,"Pinet, Shkolla 9 - Vjecare",2096/00,0.056672,0.259700,-0.083330,0.093591,false,
166,41.219944339322936,19.698293302461604,"Pezë e Madhe, Shkolla e Katarit ""16 Shtatori""",2099/00,0.103184,0.319400,-0.036829,0.153291,false,
167,41.26144452546111,19.695256849441954,"Pezë e Vogël, Shkolla 9-vjeçare ""Agron Hysenlliu""",2103/00,0.100903,0.277900,-0.039109,0.111791,false,
168,41.24271523385128,19.66763019252979,"Varosh, Shkolla",2104/00,0.080154,0.296629,-0.059854,0.130520,false,
169,41.24074677382293,19.698947659704405,"Maknor, Shkolla",2105/00,0.103675,0.298597,-0.036338,0.132489,false,
170,41.19073277616982,19.72490064919916,"Pojanë, Shkolla ""Rufan Hakrama""",2108/00,0.123168,0.348611,-0.016850,0.182503,false,
171,41.26400098526307,19.8136710827463,"Vishaj, Shkolla",2111/00,0.189841,0.275343,0.049807,0.109235,false,
172,41.30236955962911,19.769049844930503,"Sharre, Shkolla",2112/00,0.156327,0.236975,0.016301,0.070866,false,
173,41.301186812305765,19.744048657876785,"Vaqarr, Shkolla Mesme e Bashkuar Bedri Llagami","2114/00, 2114/01",0.137549,0.238157,-0.002472,0.072049,false,
174,41.30668120245219,19.736144528606097,"Lalm, Shkolla","2115/00, 2115/01",0.131613,0.232663,-0.008407,0.066554,false,
175,41.31759283280048,19.736133815788783,"Prush, Shkolla 9-vjeçare ""Ibrahim Hima""",2116/01,0.131605,0.221751,-0.008415,0.055643,false,
176,41.32581959392455,19.730136457616457,"Gropaj, Qendra Shendetesore",2117/00,0.127100,0.213525,-0.012919,0.047416,false,
177,41.31892230272963,19.70779897220773,"Allgjate, Shkolla",2118/00,0.110323,0.220422,-0.029692,0.054313,false,
178,41.27207412840847,19.767703743268797,"Damjan, Shkolla",2119/00,0.155316,0.267270,0.015291,0.101161,false,
179,41.275516413841544,19.782289267923385,"Bultice, Qendra Shendetesore",2120/00,0.166271,0.263828,0.026243,0.097719,false,
180,41.257468353812634,19.87973929521294,"Dobresh, Shkolla fillore",1602/00,0.239463,0.281876,0.099417,0.115767,false,
181,41.217091410582135,19.91035505010555,"Mihajas, Shkolla 9 - Vjecare",1603/00,0.262458,0.322253,0.122407,0.156144,false,
182,41.246255947113006,19.900660483954518,"Berzhite, Shkolla 9 vjecare","1606/00, 1606/01",0.255176,0.293088,0.115127,0.126980,false,
183,41.23915365518845,19.939220751167806,"Ibe Siperme , Shkolla 9 vjecare","1608/00, 1608/01",0.284138,0.300191,0.144082,0.134082,false,
184,41.367671896887614,19.870946663437845,"Tufine, Shkolla","1616/00, 1616/01",0.232859,0.171672,0.092815,0.005564,false,
185,41.3578341098783,19.85130638578592,"Tufine, Ambulanca","1617/00, 1617/01",0.218108,0.181510,0.078067,0.015401,true,Njësia 4
186,41.1453794978015,19.790469969516515,"Vrap, Shkolla",2066/00,0.172415,0.393965,0.032386,0.227856,false,
187,41.275957182433864,19.663524711526495,Shkolla fillore Gerbllesh,2086/00,0.077070,0.263387,-0.062937,0.097278,false,
188,41.26464199368109,19.65314031500823,"Kalac, Shkolla 9 - Vjecare",2088/00,0.069271,0.274702,-0.070735,0.108594,false,
189,41.394762904735515,19.867744410321134,"Brrare, Shkolla",1619/00,0.230454,0.144581,0.090411,-0.021527,false,
190,41.330419969500596,19.97173760444314,"Shkalle, Shkolla",1621/00,0.308560,0.208924,0.168498,0.042816,false,
191,41.32037996025741,19.92487495070467,"Priske e Madhe, Shkolla","1625/00, 1625/01",0.273363,0.218964,0.133310,0.052856,false,
192,41.33103236416886,19.905391931940695,"Surrel, Shkolla",1626/00,0.258730,0.208312,0.118680,0.042203,false,
193,41.33903179459224,19.894276937880658,Lanabregas Shkolla,1627/01,0.250382,0.200312,0.110334,0.034204,false,
194,41.355325601782845,19.882056679625116,"Linez, ""Ambulanca e fshatit """,1628/00,0.241204,0.184019,0.101158,0.017910,false,
195,41.289198101999844,19.8708564570694,"Shkolla 9 vjeçare,Lunder; Shkolla 9 vjeçare,Lundër","2078/00, 2081/00, 2081/01",0.232791,0.250146,0.092747,0.084037,false,
196,41.32573925832895,19.869426927846195,"Ambulanca,Çollak","2080/00, 2080/01",0.231718,0.213605,0.091674,0.047496,false,
197,41.29220520044432,19.965376824266645,"Selbe, Shkolla",1624/00,0.303783,0.247139,0.163722,0.081030,false,
198,41.21777430181536,19.969872328770766,"Krrabë, Ambient privat Natasha Lakollari",1629/00,0.307159,0.321570,0.167098,0.155461,false,
199,41.21782272385752,19.969765040409797,"Krrabe, Kopeshti i femijve",1630/00,0.307079,0.321522,0.167017,0.155413,false,
200,41.21590178376927,19.945957596046036,"Mushqeta, Shkolla 9 - Vjecare",1632/00,0.289198,0.323442,0.149140,0.157334,false,
201,41.255871360126335,19.858034760556837,Shkolla Petrelë,1633/00,0.223161,0.283473,0.083120,0.117364,false,
202,41.26875112288511,19.91288068352896,"Shkolla, Mangull",1636/00,0.264355,0.270593,0.124303,0.104484,false,
203,41.25578492436664,19.929189785904114,Shkolla Shytaj,1637/00,0.276604,0.283559,0.136550,0.117451,false,
204,41.34333917942595,19.83664637378509,"Shkolla ""Eqerem Çabej""","1639/00, 1810/00, 1810/01, 1810/02",0.207097,0.196005,0.067059,0.029896,true,Njësia 4
205,41.290673521079654,19.920895031677354,Kopështi  Gurrë e Madhe,1642/00,0.270374,0.248671,0.130321,0.082562,false,
206,41.26686406454133,19.871424325856747,"Mullet, Shkolla","1645/00, 1645/01",0.233218,0.272480,0.093174,0.106372,false,
207,41.27145641861849,19.831555949966923,"Stermas, shkolla",1648/00,0.203274,0.267888,0.063237,0.101779,false,
208,41.27832101141616,19.80859116526415,"Picall, Shkolla",1649/00,0.186026,0.261023,0.045993,0.094915,false,
209,41.28613560696544,19.904612635335,"Daias, shkolla",1650/00,0.258145,0.253209,0.118095,0.087100,false,
210,41.329570546253656,20.09302473536676,"Verri, Shkolla e mesme",1652/00,0.399656,0.209774,0.259572,0.043665,false,
211,41.33807139948647,20.09731421209518,"Shengjergj,Shkolla fillore",1657/00,0.402878,0.201273,0.262793,0.035164,false,
212,41.31797533486244,20.106042646531378,"Ure, Shkolla 9 - Vjecare",1658/00,0.409433,0.221369,0.269347,0.055260,false,
213,41.32459476700154,20.07034244814631,"Shengjin, Shkolla 9 - Vjecare",1662/00,0.382620,0.214750,0.242540,0.048641,false,
214,41.47892297466485,19.95541994288778,"Fshati Mener i Siperm,shkolla 9-vjecare",1667/00,0.296305,0.060421,0.156246,-0.105687,false,
215,41.45573615529626,19.958840370923124,"Fsh.Vilez,Shkolla 9 - vjecare",1668/00,0.298874,0.083608,0.158814,-0.082501,false,
216,41.43264999300847,19.981657919575667,"Fsh.Bastar i mes,Shkolla 9 - vjecare",1669/00,0.316011,0.106694,0.175948,-0.059414,false,
217,41.42511866570971,19.997016209280915,"Fsh.Bastar Murrizi,Shkollla 9 - vjecare",1670/00,0.327547,0.114226,0.187480,-0.051883,false,
218,41.40000857724452,19.92440056232161,"Fshati Zall - Dajt,Shkolla 9 - vjecare",1674/00,0.273007,0.139336,0.132953,-0.026773,false,
219,41.420291752888794,19.8225224052228,"Kallmet, Shkolla fillore",2053/00,0.196489,0.119053,0.056454,-0.047056,false,
220,41.40427568074552,19.768905909995713,"Kasalle,shkolla 9 - Vjecare","2057/00, 2057/01",0.156219,0.135069,0.016193,-0.031040,false,
221,41.41534362605298,19.75560667619232,"Dritas, Shkolla 9 - Vjecare","2058/00, 2058/01",0.146230,0.124001,0.006207,-0.042108,false,
222,41.43171276927981,19.81217943611155,"Qenam, Shkolla 9 - Vjecare",2059/00,0.188721,0.107631,0.048687,-0.058477,false,
223,41.38936636527038,19.826910457074053,"Ndryshohet Qv. 2060, me Vendim Nr 02, dt. 21.02.2025, Nr. 275 Prot, në Qendra Sociale pranë lagjes së Re Zall-herr,  objekt publik; Ndryshohet Qv. 2062, me Vendim Nr 01, dt. 21.02.2025, Nr. 274 Prot, në Qendra Sociale pranë lagjes së Re Zall-herr,  objekt publik","2060/00, 2062/00",0.199785,0.149978,0.059749,-0.016131,false,
224,41.39458913819912,19.822530697049086,"Melçize, Shkolla fillore",2061/00,0.196495,0.144755,0.056460,-0.021354,false,
225,41.33171544268389,19.841808086603645,Shtepia e te Moshuarve,1680/00,0.210974,0.207629,0.070935,0.041520,true,Njësia 1
226,41.33268792092214,19.84527871236543,"Kopshti Nr. 56 Rr.""Shemsi Haka""; Kopshti Nr.56, Rr.""Shemsi Haka""","1681/00, 1692/00, 1692/01",0.213581,0.206656,0.073541,0.040548,true,Njësia 1
227,41.32851600802814,19.83250149464784,"Shkolla 9-vjecare ""Ali Demi""; Shkolla 9-vjeçare  (Ali Demi)","1694/00, 1694/01, 1697/00",0.203984,0.210828,0.063947,0.044720,true,Njësia 1
228,41.325831112344424,19.827200823483736,Shkolla e Baletit,"1696/00, 1696/01",0.200003,0.213513,0.059967,0.047404,true,Njësia 2
229,41.32854253005911,19.83341389547129,"Kopshti Nr.24 Rr.""Hodo Beg""","1698/00, 1698/01",0.204669,0.210802,0.064632,0.044693,true,Njësia 1
230,41.339194101950866,19.875360663482564,"Qendra  Shëndetsore,  Shkozë","1706/00, 1706/01",0.236174,0.200150,0.096130,0.034041,false,
231,41.33418998695637,19.86167298300903,"Shkolla 9-vjeçare ""Marie Logoreci"",Rr.Ali Shefqeti; Shkolla 9-vjeçare ""Marie Logoreci,Rr.Ali Shefqeti","1707/00, 1707/01, 1707/02",0.225894,0.205154,0.085852,0.039046,true,Njësia 1
232,41.325984195095145,19.82752268856665,"Shkolla e Baletit,Blv.""Petro Nini Luarasi""","1710/00, 1710/01, 1711/00, 1711/01, 1712/01",0.200244,0.213360,0.060208,0.047251,true,Njësia 2
233,41.332792629326626,19.821993335384608,"Shkolla "" Servete Maçi ""","1712/00, 1968/00, 1968/01",0.196092,0.206552,0.056056,0.040443,true,Njësia 9
234,41.31544133712685,19.846300247284354,"Shkolla ""Sander Prosi"",Rr ""Xheladin Beqiri""","1724/00, 1724/01, 1726/01",0.214348,0.223903,0.074308,0.057794,true,Njësia 2
235,41.322433562400334,19.825034985384125,"Shkolla 9 Vjeçare  ""Kosova"", Rr. ''Ismail Qemali''",1731/00,0.198376,0.216911,0.058340,0.050802,true,Njësia 2
236,41.301864630921486,19.830778116071965,"Shkolla 9 vjecare ""Ibrahim Brahja"",Rr. ''Herman Gmainer''; Shkolla 9 Vjecare ""Ibrahim Brahja"",Rr. ''Herman Gmainer''","1735/00, 1735/01, 1736/00, 1736/01, 1736/02",0.202690,0.237480,0.062653,0.071371,true,Njësia 2
237,41.33489816867708,19.83483764076112,"Shkolla 9-vjeçare""Kongresi I Lushnjes""  Rruga ""Qemal Stafa""; Shkolla 9-vjeçare ""Kongresi I Lushnjës"" Rruga ""Qemal Stafa""; Shkolla 9-vjeçare ""Kongresi I Lushnjës"", Rruga ""Qemal Stafa""","1749/00, 1749/01, 1750/00, 1752/00, 1753/00, 1753/01",0.205739,0.204446,0.065701,0.038337,true,Njësia 3
238,41.33359450140632,19.836036143056802,"Shkolla 9-vjeçare ""Niket Dardani""           Rruga ""Sitki Çiço""; Shkolla 9-vjeçare ""Niket Dardani"" Rruga ""Sitki Çiço""","1751/00, 1751/01, 1754/00, 1754/01, 1755/00, 1756/00, 1756/01",0.206639,0.205750,0.066601,0.039641,true,Njësia 3
239,41.33943700320649,19.844850677451255,"Shkolla 9-vjeçare""Hasan Prishtina""         Rruga ""Qemal Stafa""(Varri I Bamit); Shkolla 9-vjeçare""Hasan Prishtina"" Rruga ""Qemal Stafa""(Varri I Bamit); Shkolla 9-vjeçare""Hasan Prishtina"" Rruga ""Qemal Stafa"" (Varri i Bamit); Shkolla 9-vjeçare""Hasan Prishtina""Rruga ""Qemal Stafa""(Varri I Bamit); Shkolla 9-vjeçare ""Hasan Prishtina""Ruga ""Qemal Stafa""(Varri I Bamit)","1758/00, 1758/01, 1759/00, 1759/01, 1759/02, 1772/00, 1772/01, 1773/00, 1773/01, 1775/00",0.213259,0.199907,0.073220,0.033799,true,Njësia 3
240,41.337326371813745,19.833511657878464,"Shkolla ""Çajupi"" Rruga"" Kongresi  I Manastirit""; Shkolla e Mesme ""A.Z.Çajupi"" Rruga""Kongresi I Manastirit""","1763/00, 1763/01, 1771/00, 1771/01",0.204743,0.202018,0.064705,0.035909,true,Njësia 3
241,41.33771672648955,19.83560895469601,"Shkolla ""Xhezmi Delli"" Rruga""Ali Baushi""","1767/00, 1768/00, 1768/01, 1769/00, 1769/01, 1770/00, 1770/01",0.206318,0.201628,0.066280,0.035519,true,Njësia 3
242,41.34475915526449,19.840190250468012,"Rruga e Dibres, Cerdhja Nr.48; Rruga e Dibres,Çerdhja nr.48; Rruga e Dibres, Kopshti Nr.51","1782/00, 1782/01, 1783/01, 1784/00, 1784/01, 1784/02",0.209759,0.194585,0.069720,0.028476,true,Njësia 4
243,41.335276232224764,19.81395046210671,"Shkolla ""7 Marsi""","1783/00, 1975/00, 1975/01",0.190051,0.204068,0.050017,0.037959,true,Njësia 9
244,41.34695058718232,19.847253729042794,"Rruga ""A.Moisiu"" Çerdhja Nr 19","1789/00, 1789/01, 1789/02",0.215064,0.192394,0.075024,0.026285,true,Njësia 4
245,41.35336537527773,19.851313556026515,"Shkolla ""Pal Ëngjëlli""; Rr ""Myslim Keta"" SHKOLLA   ""Pal Engjelli""","1793/00, 1793/01, 1794/01, 1795/00, 1795/01",0.218113,0.185979,0.078073,0.019870,true,Njësia 4
246,41.34796209422855,19.85776855045429,"Rr:""Shefqet Kuka"", Ambjent privat në pronësi të z. Vladimir Agalliu","1796/00, 1796/01, 1796/02",0.222961,0.191382,0.082920,0.025273,true,Njësia 4
247,41.34704751334424,19.834178684862337,"Rruga ""Njazi Meka"" Kopeshti ,Nr 27",1797/01,0.205244,0.192297,0.065206,0.026188,true,Njësia 4
248,41.345682771452466,19.836633013698325,"Rruga  "" Niko Avrami "" Shkolla ""Ramazan Jarani""","1808/00, 1808/01",0.207087,0.193661,0.067049,0.027553,true,Njësia 4
249,41.31982264453079,19.816234556024966,"Kopshti nr.42 Adresa Rr.""Nikolla Tupe""","1814/00, 1814/01, 1908/00",0.191766,0.219522,0.051732,0.053413,true,Njësia 5
250,41.3214839344281,19.81495733141715,"Kopshti nr.31,Rruga""Pjetër Bogdani""","1817/00, 1818/00",0.190807,0.217860,0.050773,0.051752,true,Njësia 5
251,41.26519321374877,19.892377444740674,Kopështi  Bleta Maja Fikas,1634/00,0.248955,0.274151,0.108907,0.108042,false,
252,41.331092098421955,19.839984476927885,"Shkolla  ""Kushtrimi Lirise"" Rr. ""Ali Demi""",1683/00,0.209604,0.208252,0.069566,0.042143,true,Njësia 1
253,41.31757678376236,19.84340073324782,"""Ambjenti Privat Kadri Kadria "",Rr""Fuat Toptani""",1722/01,0.212170,0.221767,0.072131,0.055659,true,Njësia 2
254,41.31716273287023,19.816405153649228,"Shkolla ""P.N. Luarasi"",Rr""Dëshmorët e 4 Shkurtit""",1821/00,0.191894,0.222182,0.051860,0.056073,true,Njësia 5
255,41.317831925202874,19.821074300205378,"Akademia Arteve,Rr Bulevardi ""Dëshmoret e Kombit""","1824/00, 1824/01, 1825/00, 1825/01, 1826/00, 1826/01",0.195401,0.221512,0.055366,0.055404,true,Njësia 5
256,41.31646312069282,19.81149903789131,"Kopshti nr. 25,Rr""Margarita Tutulani""","1831/00, 1831/01, 1831/02",0.188210,0.222881,0.048176,0.056772,true,Njësia 5
257,41.31998667947167,19.810762396499975,"Konsultori i fëmijeve.Rruga ""Emin Duraku""","1832/00, 1832/01",0.187656,0.219358,0.047623,0.053249,true,Njësia 5
258,41.38936636527038,19.826846084057472,"Zall - Herr,Shkolla 9 - Vjecare",2055/00,0.199736,0.149978,0.059700,-0.016131,false,
259,41.32155733429202,19.808517281155776,"Kopshti nr. 52 ,Rr ""Njazi Demi""; Kopshti nr. 52 , Rr ""Njazi Demi""","1836/00, 1836/01, 1837/00",0.185970,0.217787,0.045937,0.051678,true,Njësia 5
260,41.320132325527084,19.802774834599614,"Shkolla""Besnik Sykja"" Rr""Kristo Flloqi""; Shkolla""Besnik Sykja"" Rr""Kristo Floqi""","1844/00, 1844/01, 1844/02, 1844/03, 1844/04, 1845/07",0.181657,0.219212,0.041625,0.053103,true,Njësia 5
261,41.319827729047766,19.801871200205486,"Q.F.P NR.4,Blv.""Bajram Curri""","1846/00, 1846/01",0.180978,0.219517,0.040947,0.053408,true,Njësia 5
262,41.32129170750702,19.791636457877722,"Shkolla"" Hoteleri Turizem"",Blv.""Bajram Curri""","1849/00, 1849/01",0.173291,0.218053,0.033261,0.051944,true,Njësia 5
263,41.31616114741907,19.79575174697102,"Kopshti Selite,Rr.""Qemal Butka""",1852/00,0.176382,0.223183,0.036352,0.057074,true,Njësia 5
264,41.31602490702198,19.795636307855446,"Qendra Shendetesore Selite,Rr.""Qemal Butka""","1853/00, 1853/01",0.176295,0.223319,0.036265,0.057211,true,Njësia 5
265,41.31327151820348,19.792310057877305,"Shkolla""Murat Toptani"" Rr.""Vangjel Koça""; Shkolla""Murat Toptani"" Rr,""Vangjel Koça""; Shkolla""Murat Toptani""Rr. ""Vangjel Koça""","1854/00, 1854/01, 1855/01",0.173797,0.226073,0.033767,0.059964,true,Njësia 5
266,41.31287049551775,19.770387525335895,Kopshti Nr.21,"1859/00, 1859/01, 1860/00, 1860/01",0.157332,0.226474,0.017306,0.060365,true,Njësia 6
267,41.348889721110226,19.796518081156965,Çerdhja Nr.4,"1861/00, 1861/01",0.176958,0.190455,0.036927,0.024346,false,
268,41.312169894704304,19.768958230611812,"Shkolla ""Lasgush Poradeci""","1863/00, 1863/01, 1871/00, 1871/01, 1871/02",0.156258,0.227174,0.016232,0.061066,true,Njësia 6
269,41.31575619809475,19.76741171534439,"Shkolla ""Betim Muço""; Shkolla 9 vjeçare ""Betim Muço""","1866/01, 1866/02, 1872/00, 1872/01, 1873/00, 1873/02, 1949/01",0.155097,0.223588,0.015071,0.057479,true,Njësia 6
270,41.31297952600539,19.76555496818664,"Shkolla ""Musine Kokalari''","1867/02, 1867/03",0.153702,0.226365,0.013677,0.060256,true,Njësia 6
271,41.321126365471486,19.774933557877766,"Rr. Besim Alla, Ramir Sinani","1875/00, 1875/01, 1875/02, 1875/03, 1875/04, 1875/05",0.160746,0.218218,0.020719,0.052109,true,Njësia 6
272,41.330288987480415,19.78560314253367,"Kontenier në rrugën ""Teodor Keko""","1880/02, 1880/03",0.168760,0.209055,0.028731,0.042947,true,Njësia 6
273,41.3314243236177,19.78660725838278,"Ambjent Privat në rrugën ""Leonard Frroku""","1881/00, 1881/01, 1881/02, 1881/03",0.169514,0.207920,0.029485,0.041811,true,Njësia 6
274,41.339309722745895,19.78248615787852,"Rr.""Berit Beker"" Amb sherbimi Festim Lika",1882/00,0.166419,0.200035,0.026391,0.033926,true,Njësia 7
275,41.32872239760329,19.803317072699556,Fakulteti i Inxhinierisë së Ndërtimit,1883/01,0.182064,0.210622,0.042032,0.044513,true,Njësia 7
276,41.32589449545009,19.79874003830521,Kopshti Nr.26,1896/00,0.178627,0.213450,0.038595,0.047341,true,Njësia 7
277,41.325005813178514,19.804260649944236,"Shkolla ""Sabaudin Gabrani""; Shkolla 9 vjecare ""Sabaudin Gabrani"", Rr. ""Muhamet Gjollesha""; Shkolla 9 vjeçare "" Sabaudin Gabrani"", Rr. ""Muhamet Gjollesha""","1897/00, 1898/00, 1898/01, 1909/00, 1909/01",0.182773,0.214338,0.042741,0.048230,true,Njësia 7
278,41.33463680151088,19.820093368471433,"Shkolla "" Lidhja e Prizrenit ''",1903/01,0.194665,0.204707,0.054630,0.038599,true,Njësia 9
279,41.32731862142167,19.80700021079895,Instituti i Antropologjisë,1913/00,0.184831,0.212026,0.044798,0.045917,true,Njësia 7
280,41.33051570481311,19.8225641732225,"Poliklinika Qëndrore,Objekt Publik","1921/00, 1921/01",0.196520,0.208829,0.056485,0.042720,true,Njësia 8
281,41.33230178952541,19.825163498353383,"Kopshti Nr.19,Objekt Publik",1922/01,0.198473,0.207042,0.058437,0.040934,true,Njësia 8
282,41.33453073095709,19.82441885998821,"Gjimnazi ""Partizani""; ECO","1923/00, 1923/01, 1928/00, 1962/00, 1962/01, 1962/02",0.197913,0.204814,0.057878,0.038705,true,Njësia 8
283,41.33325688087345,19.82889475046751,"Shkolla ""Kuqe"",Objekt Publik","1924/00, 1925/00, 1925/01, 1926/00, 1926/01",0.201275,0.206087,0.061239,0.039979,true,Njësia 8
284,41.33645625226498,19.830964408139895,"Shkolla ""4 Dëshmorët"",Objekt Publik","1927/00, 1927/01, 1927/02",0.202829,0.202888,0.062793,0.036779,true,Njësia 8
285,41.337853708320786,19.830405414121884,"Çerdhe Nr.13,Objekt Publik",1929/00,0.202410,0.201491,0.062373,0.035382,true,Njësia 8
286,41.33749066587599,19.82584776051556,"Shkolla ""Misto Mame""","1934/00, 1935/00, 1935/01",0.198986,0.201854,0.058951,0.035745,true,Njësia 8
287,41.33478293659883,19.822567665811917,"Shkolla ""Siri Kodra""","1938/00, 1938/01",0.196523,0.204561,0.056488,0.038453,true,Njësia 8
288,41.339230122933095,19.82552106766495,"Shkolla ""Lekë Gjiknuri""","1939/00, 1939/01, 1941/00, 1941/01, 1946/00",0.198741,0.200114,0.058705,0.034005,true,Njësia 8
289,41.34627096985157,19.822580236976428,"Shkolla ""Kiço Blushi"",Objekt Publik","1942/00, 1942/01, 1942/02, 1943/00, 1943/01",0.196532,0.193073,0.056497,0.026965,true,Njësia 8
290,41.331246578287555,19.816756129042076,"Shkolla ""Sinan Tafaj""","1947/00, 1947/01",0.192158,0.208098,0.052124,0.041989,true,Njësia 9
291,41.33143202861459,19.813204996500623,"Shkolla "" De Rada""","1948/00, 1948/01, 1949/00, 1951/00, 1951/01",0.189491,0.207912,0.049457,0.041804,true,Njësia 9
292,41.340199875892665,19.789927306287343,"Shkolla "" Aleks Buda""","1952/00, 1952/01, 1954/00, 2029/00",0.172008,0.199144,0.031978,0.033036,true,Njësia 11
293,41.33474061306338,19.81784330338852,Fakulteti I Shkencave te Natyres,"1953/00, 1953/01",0.192975,0.204604,0.052940,0.038495,true,Njësia 9
294,41.333728412894224,19.811568284338748,"Shkolla ""Hasan Vogli""",1954/01,0.188262,0.205616,0.048228,0.039507,true,Njësia 9
295,41.31198634972208,19.769352956547543,"Shkolla ""Lasgush Poradeci",1864/00,0.156555,0.227358,0.016529,0.061249,true,Njësia 6
296,41.31572393642801,19.76736879702287,"Shkolla  ""Betim Muço""",1866/00,0.155065,0.223620,0.015039,0.057512,true,Njësia 6
297,41.339333888729854,19.782217936976096,Lokal privat  Festim Lika,1882/01,0.166217,0.200010,0.026189,0.033902,true,Njësia 7
298,41.33471737239598,19.811038503911515,Kopshti  Nr.3,"1955/00, 1955/01, 1955/02",0.187864,0.204627,0.047830,0.038518,true,Njësia 9
299,41.33369618880723,19.81111767322267,"Shkolla ''Hasan Vogli""","1956/00, 1956/01",0.187923,0.205648,0.047890,0.039539,true,Njësia 9
300,41.335230997231825,19.81001611369781,"Shkolla ""Harry  Fultz""","1957/00, 1957/01, 1957/02",0.187096,0.204113,0.047063,0.038005,true,Njësia 9
301,41.341858146973756,19.803972867665056,Shkolla '' Kristo Frashëri '',"1960/00, 1960/01, 1960/02, 1960/03",0.182557,0.197486,0.042525,0.031377,true,Njësia 9
302,41.33466902513258,19.820007537782658,"Shkolla "" Lidhja e Prizrenit''","1965/00, 1965/01",0.194600,0.204675,0.054565,0.038567,true,Njësia 9
303,41.33522789723683,19.81427232718962,"Shkolla "" 7 Marsi""; Lokal Endrit Lala; Shkolla  ''7 Marsi''","1974/00, 1974/01, 1976/00, 1976/01, 1977/00, 1977/01, 1977/02, 1977/03",0.190292,0.204116,0.050259,0.038008,true,Njësia 9
304,41.32664773405095,19.81270071132184,"Sh""K PEZES""",1990/00,0.189112,0.212697,0.049078,0.046588,true,Njësia 10
305,41.332709006756154,19.807568368994346,"Shkolla""Q Stafa""","1996/00, 1996/01",0.185257,0.206635,0.045225,0.040527,true,Njësia 10
306,41.337587936100626,19.793665915321338,"Shkolla ""28 Nëntori"" Rr.""Lord Bajron""; Shkolla 9-vjeçare ""28 Nëntori"", Rr. ""L. Bajron""; Shkolla ""Ahmet Gashi"", Rr.""Lord Bajron""","2001/00, 2001/01, 2002/00, 2002/01, 2002/02, 2013/00, 2013/01, 2028/00, 2029/01",0.174816,0.201756,0.034785,0.035648,true,Njësia 11
307,41.340240151977085,19.79013115417319,"Gjimnazi ""Aleks Buda"" Rr.""Gj.Legisi""","2005/00, 2005/02",0.172161,0.199104,0.032131,0.032995,true,Njësia 11
308,41.34108306344984,19.794836754173208,"Rep. ""Inspektim-Shpëtim Minierat"",Rr ""S.Bruzi""",2006/00,0.175695,0.198261,0.035665,0.032153,true,Njësia 11
309,41.338543134483174,19.79302562718972,"Kopshti Nr.14. Rr.""Gj. Legisi""",2007/00,0.174335,0.200801,0.034305,0.034692,true,Njësia 11
310,41.33933043530086,19.794608827189787,"Kopshti Nr.28 Rr.""L. Bajron""","2008/00, 2008/01",0.175524,0.200014,0.035493,0.033905,true,Njësia 11
311,41.34244940544898,19.79492080391192,"Qendra Kombëtare e Transfuzionit te Gjakut ""Q.K.T.GJ"" Rr.""Marubi""","2009/00, 2009/01, 2010/00, 2010/01",0.175758,0.196895,0.035728,0.030786,true,Njësia 11
312,41.3515872400596,19.773916713698622,"Shkolla 9-vjeçare ""Gjergj Fishta"" Rr.""P. Radovicka""","2011/00, 2011/01",0.159982,0.187757,0.019956,0.021648,true,Njësia 11
313,41.34613492472946,19.783683311845696,"Shkolla 9-vjeçare, ""Skënder Luarasi"" Rr.""V. Noti""","2017/00, 2017/01, 2017/02",0.167318,0.193209,0.027289,0.027101,true,Njësia 11
314,41.35786400169539,19.77666659464909,"Çerdhja nr. 59, Rr. ""R. Haklaj"" K. Kamëz; Kopshti Nr. 63, Kati 2, Rr. ""R. Haklaj"" Pr. Poliklinikës, K. Kamëz.; Kopshti Nr. 63, Kati 2, Rr. ""R. Haklaj"" Pr. Poliklinikës, K. Kamëz. Nr. 63, Kati 1, Rr. ""R. Haklaj"" Përballë Poliklinikës, K. Kamëz.","2020/00, 2020/01, 2021/00, 2021/01, 2022/00, 2022/01",0.162048,0.181480,0.022021,0.015372,true,Njësia 11
315,41.35615675397223,19.762369133107228,"Nd. ''Rruga Ura'', Rr. ""Princ Vidi""","2023/00, 2023/01, 2024/00, 2024/01, 2028/01",0.151309,0.183188,0.011285,0.017079,true,Njësia 11
316,41.33717138338455,19.81992135232038,Dispanceria,"1972/00, 1973/00",0.194535,0.202173,0.054500,0.036064,true,Njësia 9
317,41.35800975614661,19.7628180983545,"Shkolla ""Kolë Jakova"", Rr ""Princ Vidi"" B.Lumi",2027/00,0.151647,0.181335,0.011622,0.015226,true,Njësia 11
